STARLINK-3518           
1 51732U 22016U   25128.62764172  .00002681  00000+0  18647-3 0  9997
2 51732  53.2170 248.5965 0001234  96.0678 264.0455 15.08844215178654
STARLINK-3525           
1 51733U 22016V   25128.63594648  .00002378  00000+0  16742-3 0  9995
2 51733  53.2175 248.5679 0001006  89.5202 270.5906 15.08849586178580
STARLINK-3450           
1 51734U 22016W   25128.61659345 -.00006397  00000+0 -38388-3 0  9997
2 51734  53.2171 248.6447 0001160  83.0745 277.0379 15.08870004178612
STARLINK-3517           
1 51735U 22016X   25128.62395284 -.00002683  00000+0 -15052-3 0  9995
2 51735  53.2173 248.6126 0001139  84.0900 276.0222 15.08846917178622
STARLINK-3447           
1 51736U 22016Y   25128.61756798  .00000676  00000+0  60545-4 0  9992
2 51736  53.2182 248.7301 0001164  84.9301 275.1824 15.08835144178630
STARLINK-3509           
1 51737U 22016Z   25128.62028251  .00000638  00000+0  58159-4 0  9996
2 51737  53.2171 248.6314 0001109  97.1390 262.9728 15.08835920178566
STARLINK-3515           
1 51738U 22016AA  25128.60187743 -.00000204  00000+0  52372-5 0  9999
2 51738  53.2164 248.7121 0001096  77.7062 282.4052 15.08846017178613
STARLINK-3516           
1 51739U 22016AB  25128.61292108  .00001039  00000+0  83351-4 0  9999
2 51739  53.2168 248.6611 0001275  93.7828 266.3310 15.08842001178637
STARLINK-3500           
1 51740U 22016AC  25128.92572155 -.00000103  00000+0  11659-4 0  9992
2 51740  53.2191 247.2544 0001613 107.2472 252.8697 15.08817175178617
STARLINK-3520           
1 51741U 22016AD  25128.60651361 -.00000472  00000+0 -11574-4 0  9991
2 51741  53.2171 248.6981 0001390  94.0049 266.1102 15.08844999177501
STARLINK-3521           
1 51742U 22016AE  25128.60926729  .00001756  00000+0  12846-3 0  9991
2 51742  53.2196 248.8723 0001521  96.4063 263.7103 15.08826400177504
STARLINK-3512           
1 51743U 22016AF  25128.61014676  .00001241  00000+0  96019-4 0  9996
2 51743  53.2181 238.5963 0001286  86.3389 273.7750 15.08840851178784
STARLINK-3452           
1 51744U 22016AG  25128.65340465  .00001600  00000+0  11861-3 0  9999
2 51744  53.2169 248.5080 0001091  86.1083 274.0033 15.08841634177513
STARLINK-3449           
1 51745U 22016AH  25128.59820348 -.00000296  00000+0 -48116-6 0  9994
2 51745  53.2175 248.7276 0001244  73.4828 286.6300 15.08835637177507
STARLINK-3502           
1 51746U 22016AJ  25128.61479911  .00002563  00000+0  17910-3 0  9996
2 51746  53.2173 238.6620 0001212 105.8735 254.2391 15.08831659177645
STARLINK-3446           
1 51747U 22016AK  25128.59180714 -.00000181  00000+0  67253-5 0  9996
2 51747  53.2165 248.8045 0001029  86.0948 274.0161 15.08837940177502
STARLINK-3501           
1 51748U 22016AL  25128.54024437 -.00000647  00000+0 -22544-4 0  9992
2 51748  53.2191 238.9930 0001441 104.1095 256.0058 15.08830694178705
STARLINK-3451           
1 51749U 22016AM  25128.56880519 -.00000548  00000+0 -16350-4 0  9994
2 51749  53.2183 249.0479 0001207 104.1714 255.9412 15.08818422178602
STARLINK-3505           
1 51750U 22016AN  25128.60007610  .00001279  00000+0  98487-4 0  9995
2 51750  53.2173 238.7301 0001484  82.9382 277.1779 15.08832194177640
STARLINK-3506           
1 51751U 22016AP  25128.61112648  .00005980  00000+0  39388-3 0  9992
2 51751  53.2183 238.6846 0001719 106.0126 254.1056 15.08804975178763
STARLINK-3511           
1 51752U 22016AQ  25128.58902735  .00001079  00000+0  85883-4 0  9990
2 51752  53.2176 238.7015 0001370  87.7076 272.4073 15.08836059177643
STARLINK-3507           
1 51753U 22016AR  25128.60376265  .00000817  00000+0  69463-4 0  9992
2 51753  53.2192 238.7186 0001461 110.0285 250.0865 15.08831385178711
STARLINK-3457           
1 51754U 22016AS  25128.56597151  .00000417  00000+0  44297-4 0  9991
2 51754  53.2166 238.6294 0001308  89.1442 270.9700 15.08827439177648
STARLINK-3460           
1 51755U 22016AT  25128.59176374  .00001257  00000+0  97046-4 0  9998
2 51755  53.2180 238.7571 0001124  91.8784 268.2336 15.08832568177643
STARLINK-3513           
1 51756U 22016AU  25128.56232554  .00000117  00000+0  25437-4 0  9998
2 51756  53.2165 238.8883 0001238  91.2776 268.8358 15.08831681178719
STARLINK-3459           
1 51757U 22016AV  25128.62584290  .00001165  00000+0  91307-4 0  9996
2 51757  53.2170 238.6133 0001137  88.6790 271.4333 15.08834039177651
STARLINK-3458           
1 51758U 22016AW  25128.61751577  .00002699  00000+0  18769-3 0  9993
2 51758  53.2170 238.5931 0001413  79.1994 280.9157 15.08823861178791
STARLINK-3456           
1 51759U 22016AX  25128.62119346  .00000783  00000+0  67264-4 0  9994
2 51759  53.2164 238.6260 0000575  53.5627 306.5418 15.08840001177652
STARLINK-3622           
1 51768U 22017A   25128.65156004  .00001342  00000+0  10238-3 0  9990
2 51768  53.2176 268.4883 0001260  89.4116 270.7021 15.08840244177998
STARLINK-3621           
1 51769U 22017B   25128.71043857  .00001082  00000+0  86076-4 0  9994
2 51769  53.2178 268.2239 0001304  87.6497 272.4645 15.08842163176560
