OBJECT_NAME,OBJECT_ID,EPOCH,MEAN_MOTION,ECCENTRICITY,INCLINATION,RA_OF_ASC_NODE,ARG_OF_PERICENTER,MEAN_ANOMALY,EPHEMERIS_TYPE,CLASSIFICATION_TYPE,NORAD_CAT_ID,ELEMENT_SET_NO,REV_AT_EPOCH,BSTAR,MEAN_MOTION_DOT,MEAN_MOTION_DDOT
STARLINK-3518,2022-016U,2025-05-08T15:03:48.244608,15.08844215,.0001234,53.2170,248.5965,96.0678,264.0455,0,U,51732,999,17865,.18647E-3,.2681E-4,0
STARLINK-3525,2022-016V,2025-05-08T15:15:45.775872,15.08849586,.0001006,53.2175,248.5679,89.5202,270.5906,0,U,51733,999,17858,.16742E-3,.2378E-4,0
STARLINK-3450,2022-016W,2025-05-08T14:47:53.674080,15.08870004,.000116,53.2171,248.6447,83.0745,277.0379,0,U,51734,999,17861,-.38388E-3,-.6397E-4,0
STARLINK-3517,2022-016X,2025-05-08T14:58:29.525376,15.08846917,.0001139,53.2173,248.6126,84.0900,276.0222,0,U,51735,999,17862,-.15052E-3,-.2683E-4,0
STARLINK-3447,2022-016Y,2025-05-08T14:49:17.873472,15.08835144,.0001164,53.2182,248.7301,84.9301,275.1824,0,U,51736,999,17863,.60545E-4,.676E-5,0
STARLINK-3509,2022-016Z,2025-05-08T14:53:12.408864,15.08835920,.0001109,53.2171,248.6314,97.1390,262.9728,0,U,51737,999,17856,.58159E-4,.638E-5,0
STARLINK-3515,2022-016AA,2025-05-08T14:26:42.209952,15.08846017,.0001096,53.2164,248.7121,77.7062,282.4052,0,U,51738,999,17861,.52372E-5,-.204E-5,0
STARLINK-3516,2022-016AB,2025-05-08T14:42:36.381312,15.08842001,.0001275,53.2168,248.6611,93.7828,266.3310,0,U,51739,999,17863,.83351E-4,.1039E-4,0
STARLINK-3500,2022-016AC,2025-05-08T22:13:02.341920,15.08817175,.0001613,53.2191,247.2544,107.2472,252.8697,0,U,51740,999,17861,.11659E-4,-.103E-5,0
STARLINK-3520,2022-016AD,2025-05-08T14:33:22.775904,15.08844999,.000139,53.2171,248.6981,94.0049,266.1102,0,U,51741,999,17750,-.11574E-4,-.472E-5,0
STARLINK-3521,2022-016AE,2025-05-08T14:37:20.693856,15.08826400,.0001521,53.2196,248.8723,96.4063,263.7103,0,U,51742,999,17750,.12846E-3,.1756E-4,0
STARLINK-3512,2022-016AF,2025-05-08T14:38:36.680064,15.08840851,.0001286,53.2181,238.5963,86.3389,273.7750,0,U,51743,999,17878,.96019E-4,.1241E-4,0
STARLINK-3452,2022-016AG,2025-05-08T15:40:54.161760,15.08841634,.0001091,53.2169,248.5080,86.1083,274.0033,0,U,51744,999,17751,.11861E-3,.16E-4,0
STARLINK-3449,2022-016AH,2025-05-08T14:21:24.780672,15.08835637,.0001244,53.2175,248.7276,73.4828,286.6300,0,U,51745,999,17750,-.48116E-6,-.296E-5,0
STARLINK-3502,2022-016AJ,2025-05-08T14:45:18.643104,15.08831659,.0001212,53.2173,238.6620,105.8735,254.2391,0,U,51746,999,17764,.1791E-3,.2563E-4,0
STARLINK-3446,2022-016AK,2025-05-08T14:12:12.136896,15.08837940,.0001029,53.2165,248.8045,86.0948,274.0161,0,U,51747,999,17750,.67253E-5,-.181E-5,0
STARLINK-3501,2022-016AL,2025-05-08T12:57:57.113568,15.08830694,.0001441,53.2191,238.9930,104.1095,256.0058,0,U,51748,999,17870,-.22544E-4,-.647E-5,0
STARLINK-3451,2022-016AM,2025-05-08T13:39:04.768416,15.08818422,.0001207,53.2183,249.0479,104.1714,255.9412,0,U,51749,999,17860,-.1635E-4,-.548E-5,0
STARLINK-3505,2022-016AN,2025-05-08T14:24:06.575040,15.08832194,.0001484,53.2173,238.7301,82.9382,277.1779,0,U,51750,999,17764,.98487E-4,.1279E-4,0
STARLINK-3506,2022-016AP,2025-05-08T14:40:01.327872,15.08804975,.0001719,53.2183,238.6846,106.0126,254.1056,0,U,51751,999,17876,.39388E-3,.598E-4,0
STARLINK-3511,2022-016AQ,2025-05-08T14:08:11.963040,15.08836059,.000137,53.2176,238.7015,87.7076,272.4073,0,U,51752,999,17764,.85883E-4,.1079E-4,0
STARLINK-3507,2022-016AR,2025-05-08T14:29:25.092960,15.08831385,.0001461,53.2192,238.7186,110.0285,250.0865,0,U,51753,999,17871,.69463E-4,.817E-5,0
STARLINK-3457,2022-016AS,2025-05-08T13:34:59.938464,15.08827439,.0001308,53.2166,238.6294,89.1442,270.9700,0,U,51754,999,17764,.44297E-4,.417E-5,0
STARLINK-3460,2022-016AT,2025-05-08T14:12:08.387136,15.08832568,.0001124,53.2180,238.7571,91.8784,268.2336,0,U,51755,999,17764,.97046E-4,.1257E-4,0
STARLINK-3513,2022-016AU,2025-05-08T13:29:44.926656,15.08831681,.0001238,53.2165,238.8883,91.2776,268.8358,0,U,51756,999,17871,.25437E-4,.117E-5,0
STARLINK-3459,2022-016AV,2025-05-08T15:01:12.826560,15.08834039,.0001137,53.2170,238.6133,88.6790,271.4333,0,U,51757,999,17765,.91307E-4,.1165E-4,0
STARLINK-3458,2022-016AW,2025-05-08T14:49:13.362528,15.08823861,.0001413,53.2170,238.5931,79.1994,280.9157,0,U,51758,999,17879,.18769E-3,.2699E-4,0
STARLINK-3456,2022-016AX,2025-05-08T14:54:31.114944,15.08840001,.0000575,53.2164,238.6260,53.5627,306.5418,0,U,51759,999,17765,.67264E-4,.783E-5,0
STARLINK-3622,2022-017A,2025-05-08T15:38:14.787456,15.08840244,.000126,53.2176,268.4883,89.4116,270.7021,0,U,51768,999,17799,.10238E-3,.1342E-4,0
STARLINK-3621,2022-017B,2025-05-08T17:03:01.892448,15.08842163,.0001304,53.2178,268.2239,87.6497,272.4645,0,U,51769,999,17656,.86076E-4,.1082E-4,0
